ION SCV-011             
1 56957U 23084AB  25294.39603230  .00010191  00000+0  40592-3 0  9991
2 56957  98.1258  95.2623 0008412 140.0739 220.1117 15.25427671129368
GHOST-3                 
1 56958U 23084AC  25294.60752919  .00024439  00000+0  65363-3 0  9998
2 56958  97.5939  67.6251 0008680  75.3794 284.8412 15.38017597131225
TOMORROW-R2             
1 56962U 23084AG  25294.32679427  .00054072  00000+0  88768-3 0  9994
2 56962  97.5858  72.8615 0006269  57.8461 302.3398 15.52231316131557
AFR-1                   
1 56964U 23084AJ  25294.60279007  .00008247  00000+0  32773-3 0  9995
2 56964  97.5980  61.5720 0012504  98.1101 262.1556 15.25507159130813
DROID.001               
1 56965U 23084AK  25294.33289795  .00084452  00000+0  10292-2 0  9994
2 56965  97.5841  75.0035 0004589  30.0160 330.1359 15.60210691131700
METEOR-M2 3             
1 57166U 23091A   25294.62626626  .00000068  00000+0  48345-4 0  9999
2 57166  98.6456 349.0549 0004767 133.8434 226.3139 14.24016707120561
STRATOSAT-TK 1 (RS52S)  
1 57167U 23091B   25294.61605403  .00128613  00000+0  17943-2 0  9994
2 57167  97.5336   3.5403 0006225 187.1678 172.9489 15.56430026128721
UMKA 1 (RS40S)          
1 57172U 23091G   25294.58893974  .00009290  00000+0  47056-3 0  9996
2 57172  97.5421 349.2968 0012814 225.8589 134.1591 15.17138289127782
2023-091H               
1 57173U 23091H   25294.57738885  .00016606  00000+0  72444-3 0  9993
2 57173  97.5416 351.4292 0010368 227.3403 132.6960 15.22184537127928
2023-091J               
1 57174U 23091J   25294.62531557  .00007148  00000+0  42338-3 0  9997
2 57174  97.5431 345.9736 0012525 248.2570 111.7328 15.11646898127568
CUBEBEL 2 (EU11S)       
1 57175U 23091K   25294.62263753  .00016345  00000+0  71196-3 0  9991
2 57175  97.5422 351.3841 0010299 229.1260 130.9084 15.22240963127924
SITRO-AIS 5 (KATYS)     
1 57176U 23091L   25294.63449532  .00016979  00000+0  72882-3 0  9990
2 57176  97.5427 351.9150 0012407 217.1524 142.8855 15.22709840127957
ZORKIY-2M 1             
1 57177U 23091M   25294.62166559  .00011693  00000+0  59717-3 0  9995
2 57177  97.5465 349.5154 0013535 222.3358 137.6831 15.16777659127786
CUBESX-HSE 3 (RS42S)    
1 57178U 23091N   25294.64036461  .00018039  00000+0  74774-3 0  9997
2 57178  97.5455 352.9778 0012030 208.4244 151.6338 15.23884329128009
MONITOR-3 (RS58S)       
1 57180U 23091Q   25294.63068876  .00014860  00000+0  65576-3 0  9992
2 57180  97.5449 351.8500 0012637 212.4635 147.5825 15.21794878127931
MONITOR-4 (RS57S)       
1 57182U 23091S   25294.62238794  .00015641  00000+0  68866-3 0  9994
2 57182  97.5444 351.8012 0012623 212.9980 147.0470 15.21859251127937
MONITOR-2 (RS39S)       
1 57184U 23091U   25294.62036961  .00008393  00000+0  44131-3 0  9993
2 57184  97.5451 349.4255 0011050 215.1852 144.8652 15.15868857127779
SVYATOBOR 1 (RS60S)     
1 57187U 23091X   25294.62197009  .00013938  00000+0  62363-3 0  9995
2 57187  97.5454 352.5023 0010010 201.8210 158.2600 15.21364091127970
HORS 1                  
1 57188U 23091Y   25294.61767446  .00014113  00000+0  63089-3 0  9995
2 57188  97.5435 352.3018 0009519 201.4694 158.6143 15.21395243127975
VIZARD-METEO (RS38S)    
1 57189U 23091Z   25294.65154464  .00021370  00000+0  80351-3 0  9994
2 57189  97.5445 355.4353 0008715 189.6407 170.4666 15.27141174128172
NANOZOND 1 (RS49S)      
1 57190U 23091AA  25294.61700330  .00067446  00000+0  14026-2 0  9990
2 57190  97.5390   2.2179 0005722 174.9054 185.2253 15.45390227128638
SITRO-AIS 6 (CHIRKIN)   
1 57192U 23091AC  25294.64251999  .00010314  00000+0  45469-3 0  9995
2 57192  97.5426 351.8826 0012029 215.5519 144.4916 15.21929075127958
SITRO-AIS 8 (ANOKHIN)   
1 57193U 23091AD  25294.66486236  .00019554  00000+0  79855-3 0  9993
2 57193  97.5422 352.7510 0011763 215.0262 145.0203 15.24371367128011
SITRO-AIS 7 (FARTUSHNIY)
1 57194U 23091AE  25294.60845177  .00009080  00000+0  40257-3 0  9998
2 57194  97.5425 351.7632 0011779 216.5903 143.4529 15.21775827127944
AVION KALUGA 650        
1 57195U 23091AF  25294.66733284  .00009033  00000+0  46085-3 0  9993
2 57195  97.5462 350.2638 0010322 213.8457 146.2118 15.16917038127821
HORS 2                  
1 57196U 23091AG  25294.60740796  .00017857  00000+0  72499-3 0  9995
2 57196  97.5450 354.1522 0009084 197.7457 162.3464 15.24613666128088
A-SEANSAT-PG1           
1 57197U 23091AH  25294.62117656  .00021744  00000+0  80217-3 0  9998
2 57197  97.5425 355.2842 0008509 196.3142 163.7824 15.27766807128179
SITRO-AIS 10 (BURDAEV)  
1 57199U 23091AK  25294.65686067  .00023127  00000+0  83671-3 0  9994
2 57199  97.5435 355.8310 0008304 192.6998 167.4033 15.28399001128205
SITRO-AIS 9 (SHCHUKIN)  
1 57201U 23091AM  25294.62706285  .00023478  00000+0  85556-3 0  9993
2 57201  97.5434 355.6678 0008314 192.9763 167.1263 15.28157408128190
UTMN 2 (RS27S)          
1 57203U 23091AP  25294.60242332  .00017646  00000+0  71135-3 0  9999
2 57203  97.5444 354.2681 0009146 193.9105 166.1882 15.24855439128097
SITRO-AIS 12 (SMIRENNIY)
1 57204U 23091AQ  25294.65653977  .00023340  00000+0  84486-3 0  9997
2 57204  97.5442 356.0389 0008283 186.5058 173.6076 15.28379585128216
ARCCUBE 1 (RS25S)       
1 57205U 23091AR  25294.61577581  .00244746  00000+0  19753-2 0  9999
2 57205  97.5255   7.1495 0003655 203.3184 156.7913 15.70117981128980
SITRO-AIS 11 (SHEFFER)  
1 57208U 23091AU  25294.65551642  .00024173  00000+0  86845-3 0  9993
2 57208  97.5442 356.1697 0008246 186.5726 173.5406 15.28619851128224
H2SAT (HEINRICH HERTZ)  
1 57213U 23093A   25294.55339336  .00000019  00000+0  00000+0 0  9992
2 57213   0.0474 237.0138 0001493  53.9408 312.2829  0.99791174  8524
KUZGTU 1 (RS47S)        
1 57217U 23091AV  25294.59502418  .00016993  00000+0  72133-3 0  9999
2 57217  97.5430 352.3013 0012077 211.1851 148.8670 15.23092028127977
2023-103B               
1 57422U 23103B   25290.85527873 -.00002754  17072-5 -38273-5 0  9992
2 57422  96.2883 346.5142 0033987 169.1648 191.0374 16.01130290128423
FENGYUN 3F              
1 57490U 23111A   25294.65601303  .00000187  00000+0  10891-3 0  9996
2 57490  98.7150   3.7749 0001437  85.3530 274.7810 14.19873284115010
HJ-2F                   
1 57519U 23116A   25294.61002998  .00013270  00000+0  59992-3 0  9996
2 57519  97.3881 299.2128 0009066 120.2154 239.9981 15.21021080122471
XRISM                   
1 57800U 23137A   25294.47891512  .00007278  00000+0  43670-3 0  9991
2 57800  31.0010 102.7549 0008256  77.6832 282.4730 15.09528220116726
METEOR-M2 4             
1 59051U 24039A   25294.65082036  .00000074  00000+0  52586-4 0  9990
2 59051  98.6672 252.3988 0007748 133.6617 226.5205 14.22389095 85356
GRBBETA                 
1 60237U 24128C   25294.57398060  .00006227  00000+0  44737-3 0  9999
2 60237  61.9918 331.9430 0056960  85.4897 275.2698 15.04019241 70344
2024-149A               
1 60468U 24149A   25294.58894414  .00013201  00000+0  48972-3 0  9998
2 60468  97.3977  10.8129 0003455  13.1554 346.9775 15.27717397 65567
WARATAH SEED-1          
1 60469U 24149B   25294.20112262  .00018472  00000+0  66621-3 0  9998
2 60469  97.3952  10.4702 0002276  29.2506 330.8861 15.28573750 65516
PHISAT 2                
1 60470U 24149C   25294.63275561  .00010996  00000+0  42514-3 0  9997
2 60470  97.4005  10.6181 0002186  50.4275 309.7156 15.26395946 65542
LEMUR-2-TOMATOKECHUP    
1 60471U 24149D   25294.48012721  .00016259  00000+0  56813-3 0  9993
2 60471  97.4034  11.7093 0002264  46.0208 314.1219 15.29638246 65594
CONNECTA IOT-1          
1 60472U 24149E   25294.44751727  .00007603  00000+0  32928-3 0  9990
2 60472  97.4010   9.6845 0002991  60.8808 299.2728 15.22681652 65463
LOPEN                   
1 60473U 24149F   25294.59284094  .00021104  00000+0  69847-3 0  9997
2 60473  97.4012  12.2423 0002385  56.9234 303.2236 15.31344890 65644
ROCK                    
1 60474U 24149G   25294.58289956  .00020781  00000+0  68689-3 0  9992
2 60474  97.4013  12.2492 0002348  56.4283 303.7182 15.31390477 65647
CONNECTA IOT-3          
1 60475U 24149H   25294.19310810  .00004872  00000+0  21510-3 0  9999
2 60475  97.3983   9.2957 0004025  50.6004 309.5589 15.22202152 65430
QUBE                    
1 60476U 24149J   25294.57353543  .00029040  00000+0  85924-3 0  9995
2 60476  97.4008  13.3152 0002527  35.8471 324.2942 15.34857108 65719
SATORO-T2               
1 60477U 24149K   25294.48059499  .00089867  00000+0  16668-2 0  9990
2 60477  97.3966  16.0349 0000858 321.6324  38.4866 15.48640647 65899
WREN-1                  
1 60478U 24149L   25294.44418555  .00012333  00000+0  40725-3 0  9995
2 60478  97.4003  12.6232 0006221  48.2741 311.9032 15.31523921 65667
TOMORROW-S1             
1 60479U 24149M   25294.45466314  .00011225  00000+0  41200-3 0  9991
2 60479  97.3983  11.1489 0003468  44.3276 315.8241 15.28109220 65575
FLOCK 4BE-18            
1 60480U 24149N   25294.57749889  .00024879  00000+0  80739-3 0  9996
2 60480  97.3973  12.1976 0004859  43.2077 316.9545 15.31936569 65656
FLOCK 4BE-7             
1 60481U 24149P   25294.45887376  .00021245  00000+0  71283-3 0  9996
2 60481  97.4001  11.9212 0004103  51.6475 308.5134 15.30896546 65613
FLOCK 4BE-4             
1 60482U 24149Q   25294.51657535  .00333947  00000+0  23921-2 0  9996
2 60482  97.3973  23.5112 0007678 299.1028  60.9466 15.72699142 66383
FLOCK 4BE-16            
1 60483U 24149R   25294.37497360  .00021345  00000+0  69602-3 0  9992
2 60483  97.3997  12.1238 0003746  54.1073 306.0516 15.31818917 65628
FLOCK 4BE-26            
1 60484U 24149S   25294.57203206  .00022736  00000+0  75068-3 0  9997
2 60484  97.3970  12.0100 0004381  47.9920 312.1693 15.31400397 65649
TOMORROW-S2             
1 60485U 24149T   25294.51484054  .00011373  00000+0  42039-3 0  9991
2 60485  97.4050  11.5689 0004005  52.9404 307.2201 15.27873148 65588
